ONEWEB-0387             
1 49313U 21090AL  26013.82280388  .00000061  00000+0  11707-3 0  9998
2 49313  87.9221 305.2603 0001927  84.4093 275.7260 13.20772473209441
ONEWEB-0388             
1 49314U 21090AM  26013.81740693 -.00000035  00000+0 -11864-3 0  9995
2 49314  87.9225 335.6916 0001916  79.7298 280.4051 13.19726483206055
ONEWEB-0389             
1 50469U 21132A   26014.12423406  .00000054  00000+0  10470-3 0  9991
2 50469  87.9089  36.4926 0002181  95.4666 264.6714 13.17649088197795
ONEWEB-0390             
1 50470U 21132B   26014.12591715  .00000038  00000+0  65499-4 0  9996
2 50470  87.9085  36.4933 0001696 101.2999 258.8323 13.17648294197795
ONEWEB-0391             
1 50471U 21132C   26014.12760911  .00000032  00000+0  49124-4 0  9994
2 50471  87.9085  36.5023 0002535 106.8421 253.2989 13.17650655197792
ONEWEB-0392             
1 50472U 21132D   26014.08204427 -.00000005  00000+0 -45995-4 0  9999
2 50472  87.9096  36.4665 0002190  97.3593 262.7788 13.17648776197824
ONEWEB-0393             
1 50473U 21132E   26013.75143550  .00000079  00000+0  16995-3 0  9998
2 50473  87.9096  36.5551 0001987  95.7595 264.3763 13.17648766197771
ONEWEB-0394             
1 50474U 21132F   26014.22030132 -.00000002  00000+0 -36736-4 0  9997
2 50474  87.9182   6.0078 0001982  86.7410 273.3949 13.18684999201305
